*******************************************************************************
Ephemeris / WWW_USER Mon Mar 24 11:51:10 2025 Pasadena, USA      / Horizons    
*******************************************************************************
Target body name: (2018 RA1)                      {source: JPL#6}
Center body name: Earth (399)                     {source: DE441}
Center-site name: Gemini South Obs., Cerro Pachon
*******************************************************************************
Start time      : A.D. 2018-Aug-07 22:22:00.0000 UT      
Stop  time      : A.D. 2018-Aug-08 11:14:00.0000 UT      
Step-size       : 1 minutes
*******************************************************************************
Target pole/equ : undefined
Target radii    : undefined                                                    
Center geodetic : 289.2634, -30.2406227, 2.71233  {E-lon(deg),Lat(deg),Alt(km)}
Center cylindric: 289.2634,5517.21435,-3194.81213 {E-lon(deg),Dxy(km),Dz(km)}
Center pole/equ : ITRF93                          {East-longitude positive}
Center radii    : 6378.137, 6378.137, 6356.752 km {Equator_a, b, pole_c}       
Target primary  : Sun
Vis. interferer : MOON (R_eq= 1737.400) km        {source: DE441}
Rel. light bend : Sun                             {source: DE441}
Rel. lght bnd GM: 1.3271E+11 km^3/s^2                                          
Small-body perts: Yes                             {source: SB441-N16}
Atmos refraction: NO (AIRLESS)
RA format       : HMS
Time format     : CAL 
Calendar mode   : Mixed Julian/Gregorian
RTS-only print  : NO       
EOP file        : eop.250321.p250617                                           
EOP coverage    : DATA-BASED 1962-JAN-20 TO 2025-MAR-21. PREDICTS-> 2025-JUN-16
Units conversion: 1 au= 149597870.700 km, c= 299792.458 km/s, 1 day= 86400.0 s 
Table cut-offs 1: Elevation (-90.0deg=NO ),Airmass (>38.000=NO), Daylight (YES)
Table cut-offs 2: Solar elongation (  0.0,180.0=NO ),Local Hour Angle( 0.0=NO )
Table cut-offs 3: RA/DEC angular rate (     0.0=NO )                           
*******************************************************************************
Initial IAU76/J2000 heliocentric ecliptic osculating elements (au, days, deg.):
  EPOCH=  2458369.5 ! 2018-Sep-08.00 (TDB)         Residual RMS= .21275        
   EC= .3232115344739424   QR= .7703453101153647   TP= 2458436.6763547547      
   OM= 166.2054176892707   W=  269.7217787981747   IN= 8.763099478405824       
  Equivalent ICRF heliocentric cartesian coordinates (au, au/d):
   X= 9.899686155013647E-01  Y=-2.468208982240139E-01  Z=-1.030323866474361E-01
  VX=-9.411283005844916E-04 VY= 1.717513364149167E-02 VZ= 4.613440841260365E-03
Asteroid physical parameters (km, seconds, rotational period in hours):        
   GM= n.a.                RAD= n.a.               ROTPER= n.a.                
   H= 26.4                 G= .150                 B-V= n.a.                   
                           ALBEDO= n.a.            STYP= n.a.                  
*******************************************************************************
 Date__(UT)__HR:MN     R.A._________(ICRF)_________DEC
******************************************************
$$SOE
 2018-Aug-08 02:28     22 30 54.043828 +15 02 13.13177
 2018-Aug-08 02:29     22 30 54.047342 +15 02 13.48557
 2018-Aug-08 02:30     22 30 54.050817 +15 02 13.83926
 2018-Aug-08 02:31     22 30 54.054251 +15 02 14.19283
 2018-Aug-08 02:32     22 30 54.057645 +15 02 14.54628
 2018-Aug-08 02:33     22 30 54.060999 +15 02 14.89962
 2018-Aug-08 02:34     22 30 54.064314 +15 02 15.25285
 2018-Aug-08 02:35     22 30 54.067589 +15 02 15.60596
 2018-Aug-08 02:36     22 30 54.070825 +15 02 15.95895
 2018-Aug-08 02:37     22 30 54.074021 +15 02 16.31182
 2018-Aug-08 02:38     22 30 54.077178 +15 02 16.66457
 2018-Aug-08 02:39     22 30 54.080296 +15 02 17.01721
 2018-Aug-08 02:40     22 30 54.083376 +15 02 17.36972
 2018-Aug-08 02:41     22 30 54.086416 +15 02 17.72212
 2018-Aug-08 02:42     22 30 54.089418 +15 02 18.07439
 2018-Aug-08 02:43     22 30 54.092381 +15 02 18.42654
 2018-Aug-08 02:44     22 30 54.095306 +15 02 18.77857
 2018-Aug-08 02:45     22 30 54.098192 +15 02 19.13048
 2018-Aug-08 02:46     22 30 54.101040 +15 02 19.48226
 2018-Aug-08 02:47     22 30 54.103850 +15 02 19.83392
 2018-Aug-08 02:48     22 30 54.106623 +15 02 20.18545
 2018-Aug-08 02:49     22 30 54.109357 +15 02 20.53686
 2018-Aug-08 02:50     22 30 54.112054 +15 02 20.88814
 2018-Aug-08 02:51     22 30 54.114713 +15 02 21.23929
 2018-Aug-08 02:52     22 30 54.117335 +15 02 21.59032
 2018-Aug-08 02:53     22 30 54.119920 +15 02 21.94122
 2018-Aug-08 02:54     22 30 54.122467 +15 02 22.29198
 2018-Aug-08 02:55     22 30 54.124978 +15 02 22.64263
 2018-Aug-08 02:56     22 30 54.127452 +15 02 22.99314
 2018-Aug-08 02:57     22 30 54.129889 +15 02 23.34352
 2018-Aug-08 02:58     22 30 54.132289 +15 02 23.69377
 2018-Aug-08 02:59     22 30 54.134653 +15 02 24.04388
 2018-Aug-08 03:00     22 30 54.136981 +15 02 24.39387
 2018-Aug-08 03:01     22 30 54.139272 +15 02 24.74372
 2018-Aug-08 03:02     22 30 54.141528 +15 02 25.09344
 2018-Aug-08 03:03     22 30 54.143748 +15 02 25.44302
 2018-Aug-08 03:04     22 30 54.145932 +15 02 25.79247
 2018-Aug-08 03:05     22 30 54.148080 +15 02 26.14179
 2018-Aug-08 03:06     22 30 54.150193 +15 02 26.49097
 2018-Aug-08 03:07     22 30 54.152270 +15 02 26.84001
 2018-Aug-08 03:08     22 30 54.154313 +15 02 27.18892
 2018-Aug-08 03:09     22 30 54.156320 +15 02 27.53769
 2018-Aug-08 03:10     22 30 54.158293 +15 02 27.88632
 2018-Aug-08 03:11     22 30 54.160231 +15 02 28.23481
 2018-Aug-08 03:12     22 30 54.162134 +15 02 28.58316
 2018-Aug-08 03:13     22 30 54.164003 +15 02 28.93137
 2018-Aug-08 03:14     22 30 54.165837 +15 02 29.27944
 2018-Aug-08 03:15     22 30 54.167637 +15 02 29.62738
 2018-Aug-08 03:16     22 30 54.169404 +15 02 29.97517
 2018-Aug-08 03:17     22 30 54.171136 +15 02 30.32281
 2018-Aug-08 03:18     22 30 54.172835 +15 02 30.67032
 2018-Aug-08 03:19     22 30 54.174501 +15 02 31.01768
 2018-Aug-08 03:20     22 30 54.176133 +15 02 31.36490
 2018-Aug-08 03:21     22 30 54.177731 +15 02 31.71197
 2018-Aug-08 03:22     22 30 54.179297 +15 02 32.05890
 2018-Aug-08 03:23     22 30 54.180830 +15 02 32.40569
 2018-Aug-08 03:24     22 30 54.182330 +15 02 32.75232
 2018-Aug-08 03:25     22 30 54.183797 +15 02 33.09882
 2018-Aug-08 03:26     22 30 54.185232 +15 02 33.44516
 2018-Aug-08 03:27     22 30 54.186635 +15 02 33.79136
 2018-Aug-08 03:28     22 30 54.188005 +15 02 34.13741
 2018-Aug-08 03:29     22 30 54.189344 +15 02 34.48331
 2018-Aug-08 03:30     22 30 54.190650 +15 02 34.82906
 2018-Aug-08 03:31     22 30 54.191925 +15 02 35.17466
 2018-Aug-08 03:32     22 30 54.193169 +15 02 35.52011
 2018-Aug-08 03:33     22 30 54.194381 +15 02 35.86541
 2018-Aug-08 03:34     22 30 54.195562 +15 02 36.21056
 2018-Aug-08 03:35     22 30 54.196712 +15 02 36.55556
 2018-Aug-08 03:36     22 30 54.197831 +15 02 36.90041
 2018-Aug-08 03:37     22 30 54.198919 +15 02 37.24510
 2018-Aug-08 03:38     22 30 54.199977 +15 02 37.58965
 2018-Aug-08 03:39     22 30 54.201005 +15 02 37.93403
 2018-Aug-08 03:40     22 30 54.202002 +15 02 38.27827
 2018-Aug-08 03:41     22 30 54.202969 +15 02 38.62234
 2018-Aug-08 03:42     22 30 54.203906 +15 02 38.96627
 2018-Aug-08 03:43     22 30 54.204814 +15 02 39.31004
 2018-Aug-08 03:44     22 30 54.205692 +15 02 39.65365
 2018-Aug-08 03:45     22 30 54.206541 +15 02 39.99710
 2018-Aug-08 03:46     22 30 54.207360 +15 02 40.34040
 2018-Aug-08 03:47     22 30 54.208150 +15 02 40.68354
 2018-Aug-08 03:48     22 30 54.208912 +15 02 41.02652
 2018-Aug-08 03:49     22 30 54.209645 +15 02 41.36935
 2018-Aug-08 03:50     22 30 54.210349 +15 02 41.71201
 2018-Aug-08 03:51     22 30 54.211025 +15 02 42.05452
 2018-Aug-08 03:52     22 30 54.211673 +15 02 42.39686
 2018-Aug-08 03:53     22 30 54.212292 +15 02 42.73905
 2018-Aug-08 03:54     22 30 54.212884 +15 02 43.08107
 2018-Aug-08 03:55     22 30 54.213448 +15 02 43.42294
 2018-Aug-08 03:56     22 30 54.213985 +15 02 43.76464
 2018-Aug-08 03:57     22 30 54.214494 +15 02 44.10618
 2018-Aug-08 03:58     22 30 54.214976 +15 02 44.44756
 2018-Aug-08 03:59     22 30 54.215432 +15 02 44.78877
 2018-Aug-08 04:00     22 30 54.215860 +15 02 45.12982
 2018-Aug-08 04:01     22 30 54.216262 +15 02 45.47071
 2018-Aug-08 04:02     22 30 54.216637 +15 02 45.81143
 2018-Aug-08 04:03     22 30 54.216986 +15 02 46.15199
 2018-Aug-08 04:04     22 30 54.217309 +15 02 46.49238
 2018-Aug-08 04:05     22 30 54.217606 +15 02 46.83261
 2018-Aug-08 04:06     22 30 54.217877 +15 02 47.17267
 2018-Aug-08 04:07     22 30 54.218122 +15 02 47.51256
 2018-Aug-08 04:08     22 30 54.218343 +15 02 47.85229
 2018-Aug-08 04:09     22 30 54.218538 +15 02 48.19185
 2018-Aug-08 04:10     22 30 54.218708 +15 02 48.53124
 2018-Aug-08 04:11     22 30 54.218853 +15 02 48.87046
 2018-Aug-08 04:12     22 30 54.218973 +15 02 49.20952
 2018-Aug-08 04:13     22 30 54.219069 +15 02 49.54841
 2018-Aug-08 04:14     22 30 54.219141 +15 02 49.88712
 2018-Aug-08 04:15     22 30 54.219188 +15 02 50.22567
 2018-Aug-08 04:16     22 30 54.219212 +15 02 50.56405
 2018-Aug-08 04:17     22 30 54.219211 +15 02 50.90226
 2018-Aug-08 04:18     22 30 54.219187 +15 02 51.24029
 2018-Aug-08 04:19     22 30 54.219140 +15 02 51.57816
 2018-Aug-08 04:20     22 30 54.219070 +15 02 51.91585
 2018-Aug-08 04:21     22 30 54.218976 +15 02 52.25337
 2018-Aug-08 04:22     22 30 54.218860 +15 02 52.59072
 2018-Aug-08 04:23     22 30 54.218721 +15 02 52.92789
 2018-Aug-08 04:24     22 30 54.218560 +15 02 53.26490
 2018-Aug-08 04:25     22 30 54.218376 +15 02 53.60172
 2018-Aug-08 04:26     22 30 54.218170 +15 02 53.93838
 2018-Aug-08 04:27     22 30 54.217942 +15 02 54.27486
 2018-Aug-08 04:28     22 30 54.217693 +15 02 54.61117
 2018-Aug-08 04:29     22 30 54.217422 +15 02 54.94730
 2018-Aug-08 04:30     22 30 54.217130 +15 02 55.28325
